OBJECT_NAME,OBJECT_ID,EPOCH,MEAN_MOTION,ECCENTRICITY,INCLINATION,RA_OF_ASC_NODE,ARG_OF_PERICENTER,MEAN_ANOMALY,EPHEMERIS_TYPE,CLASSIFICATION_TYPE,NORAD_CAT_ID,ELEMENT_SET_NO,REV_AT_EPOCH,BSTAR,MEAN_MOTION_DOT,MEAN_MOTION_DDOT
CUBEBUG-2 (LO-74),2013-066AA,2026-06-14T20:27:47.606112,14.93744304,.00585521,97.8904,114.8208,36.5594,323.9600,0,U,39440,999,67664,.38674977E-3,.4175E-4,0
FUNCUBE-1 (AO-73),2013-066AE,2026-06-15T04:48:37.304064,15.09468323,.0035478,97.8272,137.6048,207.9767,151.9555,0,U,39444,999,67936,.37272E-3,.5988E-4,0
UWE-3,2013-066AG,2026-06-14T19:25:31.375488,14.97007906,.00479581,97.8691,121.8670,329.0544,30.7853,0,U,39446,999,67722,.35105924E-3,.4072E-4,0
UNISAT-6,2014-033C,2026-06-15T04:24:13.505760,14.88237175,.0046302,97.7873,318.9305,75.7455,284.8898,0,U,40012,999,64586,.27921E-3,.2572E-4,0
DUCHIFAT-1,2014-033M,2026-06-15T02:27:55.090944,15.64229464,.0003178,98.0469,224.9698,116.5852,243.5731,0,U,40021,999,65542,.10109E-2,.97028E-3,0
QB50P1,2014-033R,2026-06-14T23:24:12.909888,15.18232350,.0007645,98.0959,176.9659,224.1126,135.9497,0,U,40025,999,65269,.39591E-3,.8035E-4,0
LILACSAT-2,2015-049K,2026-06-15T03:27:02.444256,15.51388490,.0005396,97.4646,202.9076,254.8564,105.2091,0,U,40908,999,59543,.28286E-3,.16571E-3,0
FOX-1A (AO-85),2015-058D,2026-06-15T01:43:42.235104,14.90961275,.0130328,64.7762,285.5569,57.4109,303.9507,0,U,40967,999,11325,.20683E-3,.223E-4,0
CAS-2T & KS-1Q,2016-066G,2026-06-15T03:54:24.978240,14.44688208,.0342731,98.3821,241.9222,135.6008,227.3214,0,U,41847,999,50450,.22513E-3,.1557E-4,0
RADFXSAT (FOX-1B),2017-073E,2026-06-15T03:46:40.491840,15.12691505,.0149876,97.4708,33.4140,336.3288,23.1094,0,U,43017,999,46508,.31144E-3,.711E-4,0
DIWATA-2B,2018-084H,2026-06-15T04:03:42.017184,15.00444053,.0012364,98.1176,2.2898,176.6836,183.4471,0,U,43678,999,41591,.19196E-3,.2352E-4,0
ES'HAIL 2,2018-090A,2026-06-15T04:37:42.665088,1.00269595,.0001569,0.0180,3.5947,120.8003,234.3029,0,U,43700,999,2765,0,.148E-5,0
FOX-1CLIFF (AO-95),2018-099N,2026-06-15T02:40:24.381120,15.26676025,.0008202,97.4386,226.3649,5.4671,354.6656,0,U,43770,999,41290,.42485E-3,.11091E-3,0
ITASAT,2018-099AE,2026-06-15T02:40:21.675072,15.19035090,.0012323,97.4029,217.6642,7.5940,352.5479,0,U,43786,999,41259,.28974E-3,.6013E-4,0
JY1SAT (JO-97),2018-099AX,2026-06-15T01:45:14.709888,15.33596637,.0004244,97.4132,228.8995,272.7751,87.3006,0,U,43803,999,41330,.48189E-3,.1559E-3,0
UWE-4,2018-111E,2026-06-15T01:54:10.924704,15.46014833,.0005901,97.5861,94.3737,351.8204,8.2947,0,U,43880,999,41045,.63705E-3,.31097E-3,0
TIANYAN 01,2019-093C,2026-06-15T03:50:23.801280,14.86518188,.0015078,97.7538,238.4412,93.0577,267.2365,0,U,44881,999,35111,.15543E-3,.1325E-4,0
RS-44 & BREEZE-KM R/B,2019-096E,2026-06-14T23:20:21.897024,12.79748835,.0218083,82.5218,341.1769,149.3296,212.0766,0,U,44909,999,30206,.12208E-5,.13E-6,0
SALSAT,2020-068K,2026-06-14T23:41:15.080640,15.29772719,.0008203,97.8843,168.9175,317.5916,42.4688,0,U,46495,999,31502,.24187E-3,.6897E-4,0
XW-3 (CAS-9),2021-131B,2026-06-15T04:19:37.252992,14.41356172,.000536,98.4984,258.5806,101.3911,258.7880,0,U,50466,999,23482,.18332E-3,.549E-5,0
GREENCUBE (IO-117),2022-080E,2026-06-13T07:02:28.697280,6.42583230,.00089108,70.1444,299.5995,290.4576,69.5127,0,U,53109,999,9181,0,-.3E-7,0
UMKA 1 (RS40S),2023-091G,2026-06-15T04:27:34.836768,15.20797606,.0014181,97.5054,224.8905,123.8643,236.3944,0,U,57172,999,16370,.25121E-3,.5482E-4,0
CUBESX-HSE 3 (RS42S),2023-091N,2026-06-15T03:33:04.970880,15.31173051,.0012072,97.5097,231.7092,100.9791,259.2809,0,U,57178,999,16411,.43122E-3,.12942E-3,0
MONITOR-3 (RS58S),2023-091Q,2026-06-15T04:01:52.671072,15.27807648,.0013141,97.5089,229.5989,106.9810,253.2870,0,U,57180,999,16398,.31886E-3,.8606E-4,0
MONITOR-4 (RS57S),2023-091S,2026-06-15T03:31:52.868352,15.27893678,.0013116,97.5082,229.5490,107.4228,252.8446,0,U,57182,999,16398,.3497E-3,.9472E-4,0
MONITOR-2 (RS39S),2023-091U,2026-06-15T04:54:34.308000,15.18894136,.0012668,97.5076,224.5001,117.1032,243.1496,0,U,57184,999,16365,.20062E-3,.4124E-4,0
SVYATOBOR 1 (RS60S),2023-091X,2026-06-15T03:48:13.065120,15.26585545,.0010899,97.5094,229.9641,100.4601,259.7866,0,U,57187,999,16400,.2868E-3,.7444E-4,0
VIZARD-METEO (RS38S),2023-091Z,2026-06-15T04:38:14.977824,15.35971622,.0008387,97.5098,235.6379,83.5492,276.6707,0,U,57189,999,16438,.40392E-3,.14087E-3,0
POLYTECH-UNIVERSE 3 (RS46S),2023-091AB,2026-06-15T02:24:24.860736,15.19096222,.0016759,97.5051,223.9011,133.4116,226.8517,0,U,57191,999,16363,.24344E-3,.5057E-4,0
UTMN 2 (RS27S),2023-091AP,2026-06-15T04:00:00.777024,15.32009178,.000937,97.5093,233.3594,89.8342,270.3973,0,U,57203,999,16423,.33166E-3,.10186E-3,0
