CUBEBUG-2 (LO-74)       
1 39440U 13066AA  26165.85263433  .00004175  00000+0  38675-3 0  9998
2 39440  97.8904 114.8208 0058552  36.5594 323.9600 14.93744304676641
FUNCUBE-1 (AO-73)       
1 39444U 13066AE  26166.20043176  .00005988  00000+0  37272-3 0  9997
2 39444  97.8272 137.6048 0035478 207.9767 151.9555 15.09468323679368
UWE-3                   
1 39446U 13066AG  26165.80939092  .00004072  00000+0  35106-3 0  9992
2 39446  97.8691 121.8670 0047958 329.0544  30.7853 14.97007906677226
UNISAT-6                
1 40012U 14033C   26166.18348965  .00002572  00000+0  27921-3 0  9992
2 40012  97.7873 318.9305 0046302  75.7455 284.8898 14.88237175645869
DUCHIFAT-1              
1 40021U 14033M   26166.10272096  .00097028  00000+0  10109-2 0  9994
2 40021  98.0469 224.9698 0003178 116.5852 243.5731 15.64229464655422
QB50P1                  
1 40025U 14033R   26165.97514942  .00008035  00000+0  39591-3 0  9998
2 40025  98.0959 176.9659 0007645 224.1126 135.9497 15.18232350652692
LILACSAT-2              
1 40908U 15049K   26166.14377829  .00016571  00000+0  28286-3 0  9990
2 40908  97.4646 202.9076 0005396 254.8564 105.2091 15.51388490595430
FOX-1A (AO-85)          
1 40967U 15058D   26166.07201661  .00002230  00000+0  20683-3 0  9997
2 40967  64.7762 285.5569 0130328  57.4109 303.9507 14.90961275113256
CAS-2T & KS-1Q          
1 41847U 16066G   26166.16278910  .00001557  00000+0  22513-3 0  9991
2 41847  98.3821 241.9222 0342731 135.6008 227.3214 14.44688208504502
RADFXSAT (FOX-1B)       
1 43017U 17073E   26166.15741310  .00007110  00000+0  31144-3 0  9990
2 43017  97.4708  33.4140 0149876 336.3288  23.1094 15.12691505465082
DIWATA-2B               
1 43678U 18084H   26166.16923631  .00002352  00000+0  19196-3 0  9991
2 43678  98.1176   2.2898 0012364 176.6836 183.4471 15.00444053415918
ES'HAIL 2               
1 43700U 18090A   26166.19285492  .00000148  00000+0  00000+0 0  9994
2 43700   0.0180   3.5947 0001569 120.8003 234.3029  1.00269595 27658
FOX-1CLIFF (AO-95)      
1 43770U 18099N   26166.11139330  .00011091  00000+0  42485-3 0  9997
2 43770  97.4386 226.3649 0008202   5.4671 354.6656 15.26676025412908
ITASAT                  
1 43786U 18099AE  26166.11136198  .00006013  00000+0  28974-3 0  9998
2 43786  97.4029 217.6642 0012323   7.5940 352.5479 15.19035090412594
JY1SAT (JO-97)          
1 43803U 18099AX  26166.07308692  .00015590  00000+0  48189-3 0  9993
2 43803  97.4132 228.8995 0004244 272.7751  87.3006 15.33596637413307
UWE-4                   
1 43880U 18111E   26166.07929311  .00031097  00000+0  63705-3 0  9991
2 43880  97.5861  94.3737 0005901 351.8204   8.2947 15.46014833410451
TIANYAN 01              
1 44881U 19093C   26166.15999770  .00001325  00000+0  15543-3 0  9996
2 44881  97.7538 238.4412 0015078  93.0577 267.2365 14.86518188351114
RS-44 & BREEZE-KM R/B   
1 44909U 19096E   26165.97247566  .00000013  00000+0  12208-5 0  9998
2 44909  82.5218 341.1769 0218083 149.3296 212.0766 12.79748835302060
SALSAT                  
1 46495U 20068K   26165.98698010  .00006897  00000+0  24187-3 0  9999
2 46495  97.8843 168.9175 0008203 317.5916  42.4688 15.29772719315024
XW-3 (CAS-9)            
1 50466U 21131B   26166.18029228  .00000549  00000+0  18332-3 0  9999
2 50466  98.4984 258.5806 0005360 101.3911 258.7880 14.41356172234820
GREENCUBE (IO-117)      
1 53109U 22080E   26164.29338770 -.00000003  00000+0  00000+0 0  9990
2 53109  70.1444 299.5995 0008910 290.4576  69.5127  6.42583230 91811
UMKA 1 (RS40S)          
1 57172U 23091G   26166.18581987  .00005482  00000+0  25121-3 0  9997
2 57172  97.5054 224.8905 0014181 123.8643 236.3944 15.20797606163707
CUBESX-HSE 3 (RS42S)    
1 57178U 23091N   26166.14797420  .00012942  00000+0  43122-3 0  9990
2 57178  97.5097 231.7092 0012072 100.9791 259.2809 15.31173051164115
MONITOR-3 (RS58S)       
1 57180U 23091Q   26166.16797073  .00008606  00000+0  31886-3 0  9995
2 57180  97.5089 229.5989 0013141 106.9810 253.2870 15.27807648163982
MONITOR-4 (RS57S)       
1 57182U 23091S   26166.14713968  .00009472  00000+0  34970-3 0  9995
2 57182  97.5082 229.5490 0013116 107.4228 252.8446 15.27893678163987
MONITOR-2 (RS39S)       
1 57184U 23091U   26166.20456375  .00004124  00000+0  20062-3 0  9996
2 57184  97.5076 224.5001 0012668 117.1032 243.1496 15.18894136163659
SVYATOBOR 1 (RS60S)     
1 57187U 23091X   26166.15848455  .00007444  00000+0  28680-3 0  9999
2 57187  97.5094 229.9641 0010899 100.4601 259.7866 15.26585545164006
VIZARD-METEO (RS38S)    
1 57189U 23091Z   26166.19322891  .00014087  00000+0  40392-3 0  9991
2 57189  97.5098 235.6379 0008387  83.5492 276.6707 15.35971622164380
POLYTECH-UNIVERSE 3 (R*)
1 57191U 23091AB  26166.10028774  .00005057  00000+0  24344-3 0  9994
2 57191  97.5051 223.9011 0016759 133.4116 226.8517 15.19096222163634
UTMN 2 (RS27S)          
1 57203U 23091AP  26166.16667566  .00010186  00000+0  33166-3 0  9993
2 57203  97.5093 233.3594 0009370  89.8342 270.3973 15.32009178164237
